COMMENT,ORIGINATOR,NORAD_CAT_ID,OBJECT_NAME,OBJECT_TYPE,CLASSIFICATION_TYPE,INTLDES,EPOCH,EPOCH_MICROSECONDS,MEAN_MOTION,ECCENTRICITY,INCLINATION,RA_OF_ASC_NODE,ARG_OF_PERICENTER,MEAN_ANOMALY,EPHEMERIS_TYPE,ELEMENT_SET_NO,REV_AT_EPOCH,BSTAR,MEAN_MOTION_DOT,MEAN_MOTION_DDOT,FILE,TLE_LINE0,TLE_LINE1,TLE_LINE2,OBJECT_ID,OBJECT_NUMBER,SEMIMAJOR_AXIS,PERIOD,APOGEE,PERIGEE,DECAYED
GENERATED VIA SPACETRACK.ORG API,18 SPCS,50803,STARLINK-3321,PAYLOAD,U,22001A,2024-12-28 14:00:01,224,15.61022751,7.24e-05,53.2119,320.1717,91.7724,26.1982,0,999,583,0.0058575,0.00535659,0.0,4594408,0 STARLINK-3321,1 50803U 22001A   24363.58334491  .00535659  00000-0  58575-2 0  9991,2 50803  53.2119 320.1717 0000724  91.7724  26.1982 15.61022751  5837,2022-001A,50803,6762.839,92.247,385.193,384.214,1
GENERATED VIA SPACETRACK.ORG API,18 SPCS,50803,STARLINK-3321,PAYLOAD,U,22001A,2024-12-29 04:00:00,999936,15.61634715,6.78e-05,53.2118,317.3362,85.5543,73.0773,0,999,16602,0.0061476,0.00578747,0.0,4594809,0 STARLINK-3321,1 50803U 22001A   24364.16667824  .00578747  00000-0  61476-2 0  9994,2 50803  53.2118 317.3362 0000678  85.5543  73.0773 15.61634715166025,2022-001A,50803,6761.072,92.211,383.395,382.478,1
GENERATED VIA SPACETRACK.ORG API,18 SPCS,50803,STARLINK-3321,PAYLOAD,U,22001A,2024-12-29 14:00:01,224,15.62098801,8.93e-05,53.2116,315.3076,100.1507,242.6143,0,999,589,0.0058762,0.00561966,0.0,4595400,0 STARLINK-3321,1 50803U 22001A   24364.58334491  .00561966  00000-0  58762-2 0  9990,2 50803  53.2116 315.3076 0000893 100.1507 242.6143 15.62098801  5899,2022-001A,50803,6759.732,92.184,382.201,380.994,1
GENERATED VIA SPACETRACK.ORG API,18 SPCS,50803,STARLINK-3321,PAYLOAD,U,22001A,2024-12-29 22:00:00,999936,15.62469778,9.1e-05,53.2117,313.6843,110.6239,307.9392,0,999,583,0.0057389,0.00556376,0.0,4595704,0 STARLINK-3321,1 50803U 22001A   24364.91667824  .00556376  00000-0  57389-2 0  9999,2 50803  53.2117 313.6843 0000910 110.6239 307.9392 15.62469778  5831,2022-001A,50803,6758.662,92.162,381.142,379.912,1
GENERATED VIA SPACETRACK.ORG API,18 SPCS,50803,STARLINK-3321,PAYLOAD,U,22001A,2024-12-30 10:00:00,999936,15.63004315,6.04e-05,53.2113,311.2496,98.9511,254.1331,0,999,16622,0.005769,0.00572211,0.0,4596034,0 STARLINK-3321,1 50803U 22001A   24365.41667824  .00572211  00000-0  57690-2 0  9996,2 50803  53.2113 311.2496 0000604  98.9511 254.1331 15.63004315166226,2022-001A,50803,6757.121,92.13,379.395,378.578,1
GENERATED VIA SPACETRACK.ORG API,18 SPCS,50803,STARLINK-3321,PAYLOAD,U,22001A,2024-12-30 14:00:01,999872,15.63191153,6.75e-05,53.2117,310.4358,113.8311,97.7097,0,999,584,0.0055012,0.00547934,0.0,4596366,0 STARLINK-3321,1 50803U 22001A   24365.58335648  .00547934  00000-0  55012-2 0  9990,2 50803  53.2117 310.4358 0000675 113.8311  97.7097 15.63191153  5848,2022-001A,50803,6756.583,92.119,378.904,377.992,1
GENERATED VIA SPACETRACK.ORG API,18 SPCS,50803,STARLINK-3321,PAYLOAD,U,22001A,2024-12-30 22:00:00,999936,15.63554041,9.42e-05,53.212,308.8099,117.693,170.8866,0,999,589,0.0055716,0.00563999,0.0,4596672,0 STARLINK-3321,1 50803U 22001A   24365.91667824  .00563999  00000-0  55716-2 0  9991,2 50803  53.2120 308.8099 0000942 117.6930 170.8866 15.63554041  5892,2022-001A,50803,6755.538,92.098,378.039,376.766,1
GENERATED VIA SPACETRACK.ORG API,18 SPCS,50803,STARLINK-3321,PAYLOAD,U,22001A,2024-12-31 12:00:00,999648,15.64195655,9.51e-05,53.2119,305.9637,108.5407,226.0237,0,999,16639,0.0051689,0.0053457,0.0,4596935,0 STARLINK-3321,1 50803U 22001A   24366.50001157  .00534570  00000-0  51689-2 0  9996,2 50803  53.2119 305.9637 0000951 108.5407 226.0237 15.64195655166396,2022-001A,50803,6753.69,92.06,376.197,374.913,1
GENERATED VIA SPACETRACK.ORG API,18 SPCS,50803,STARLINK-3321,PAYLOAD,U,22001A,2024-12-31 14:00:01,224,15.64268087,9.67e-05,53.2121,305.5562,114.7989,329.3082,0,999,588,0.0054929,0.00572442,0.0,4597186,0 STARLINK-3321,1 50803U 22001A   24366.58334491  .00572442  00000-0  54929-2 0  9994,2 50803  53.2121 305.5562 0000967 114.7989 329.3082 15.64268087  5884,2022-001A,50803,6753.482,92.056,376.0,374.693,1
GENERATED VIA SPACETRACK.ORG API,18 SPCS,50803,STARLINK-3321,PAYLOAD,U,22001A,2024-12-31 20:00:01,224,15.64540749,9.71e-05,53.212,304.3347,120.9202,291.9546,0,999,582,0.0055623,0.00587018,0.0,4597458,0 STARLINK-3321,1 50803U 22001A   24366.83334491  .00587018  00000-0  55623-2 0  9999,2 50803  53.2120 304.3347 0000971 120.9202 291.9546 15.64540749  5824,2022-001A,50803,6752.697,92.04,375.218,373.906,1
GENERATED VIA SPACETRACK.ORG API,18 SPCS,50803,STARLINK-3321,PAYLOAD,U,22001A,2025-01-01 06:00:00,999648,15.64968532,8.62e-05,53.2115,302.3008,103.45,137.9281,0,999,16650,0.0058588,0.00632484,0.0,4597961,0 STARLINK-3321,1 50803U 22001A   25001.25001157  .00632484  00000-0  58588-2 0  9993,2 50803  53.2115 302.3008 0000862 103.4500 137.9281 15.64968532166508,2022-001A,50803,6751.466,92.015,373.913,372.749,1
GENERATED VIA SPACETRACK.ORG API,18 SPCS,50803,STARLINK-3321,PAYLOAD,U,22001A,2025-01-01 06:00:00,999648,15.64968532,8.62e-05,53.2115,302.3008,103.45,137.9281,0,999,588,0.0058588,0.00632484,0.0,4598149,0 STARLINK-3321,1 50803U 22001A   25001.25001157  .00632484  00000-0  58588-2 0  9993,2 50803  53.2115 302.3008 0000862 103.4500 137.9281 15.64968532  5881,2022-001A,50803,6751.466,92.015,373.913,372.749,1
GENERATED VIA SPACETRACK.ORG API,18 SPCS,50803,STARLINK-3321,PAYLOAD,U,22001A,2025-01-02 06:00:00,999648,15.66053407,0.000109,53.2112,297.4082,112.2371,8.3014,0,999,16666,0.0057021,0.00643566,0.0,4598253,0 STARLINK-3321,1 50803U 22001A   25002.25001157  .00643566  00000-0  57021-2 0  9998,2 50803  53.2112 297.4082 0001090 112.2371   8.3014 15.66053407166669,2022-001A,50803,6748.348,91.951,370.948,369.477,1
GENERATED VIA SPACETRACK.ORG API,18 SPCS,50803,STARLINK-3321,PAYLOAD,U,22001A,2025-01-02 08:00:01,999872,15.66209432,0.0001062,53.2109,296.9998,102.7673,127.9076,0,999,585,0.0047494,0.00531855,0.0,4598496,0 STARLINK-3321,1 50803U 22001A   25002.33335648  .00531855  00000-0  47494-2 0  9992,2 50803  53.2109 296.9998 0001062 102.7673 127.9076 15.66209432  5853,2022-001A,50803,6747.9,91.942,370.481,369.048,1
GENERATED VIA SPACETRACK.ORG API,18 SPCS,50803,STARLINK-3321,PAYLOAD,U,22001A,2025-01-02 22:00:00,999936,15.66822822,0.0001195,53.2113,294.1402,113.5213,168.6204,0,999,594,0.0047334,0.00544102,0.0,4598729,0 STARLINK-3321,1 50803U 22001A   25002.91667824  .00544102  00000-0  47334-2 0  9992,2 50803  53.2113 294.1402 0001195 113.5213 168.6204 15.66822822  5944,2022-001A,50803,6746.138,91.906,368.81,367.197,1
GENERATED VIA SPACETRACK.ORG API,18 SPCS,50803,STARLINK-3321,PAYLOAD,U,22001A,2025-01-03 14:00:01,224,15.67523407,0.0001007,53.211,290.8704,118.1585,327.3548,0,999,578,0.0049587,0.00589727,0.0,4599090,0 STARLINK-3321,1 50803U 22001A   25003.58334491  .00589727  00000-0  49587-2 0  9991,2 50803  53.2110 290.8704 0001007 118.1585 327.3548 15.67523407  5789,2022-001A,50803,6744.128,91.865,366.672,365.314,1
GENERATED VIA SPACETRACK.ORG API,18 SPCS,50803,STARLINK-3321,PAYLOAD,U,22001A,2025-01-03 16:00:00,999936,15.67606364,5.83e-05,53.2102,290.4606,109.9507,86.1057,0,999,16688,0.0051645,0.00618543,0.0,4599184,0 STARLINK-3321,1 50803U 22001A   25003.66667824  .00618543  00000-0  51645-2 0  9996,2 50803  53.2102 290.4606 0000583 109.9507  86.1057 15.67606364166885,2022-001A,50803,6743.89,91.86,366.148,365.362,1
GENERATED VIA SPACETRACK.ORG API,18 SPCS,50803,STARLINK-3321,PAYLOAD,U,22001A,2025-01-03 22:00:00,999936,15.67912132,7.49e-05,53.2104,289.2342,93.8637,73.9759,0,999,583,0.0046298,0.0055709,0.0,4599680,0 STARLINK-3321,1 50803U 22001A   25003.91667824  .00557090  00000-0  46298-2 0  9991,2 50803  53.2104 289.2342 0000749  93.8637  73.9759 15.67912132  5832,2022-001A,50803,6743.013,91.842,365.384,364.373,1
GENERATED VIA SPACETRACK.ORG API,18 SPCS,50803,STARLINK-3321,PAYLOAD,U,22001A,2025-01-04 04:00:00,999936,15.68154185,7.11e-05,53.2103,288.0078,79.0602,60.8335,0,999,16696,0.005195,0.00637694,0.0,4599445,0 STARLINK-3321,1 50803U 22001A   25004.16667824  .00637694  00000-0  51950-2 0  9999,2 50803  53.2103 288.0078 0000711  79.0602  60.8335 15.68154185166965,2022-001A,50803,6742.32,91.828,364.664,363.705,1
GENERATED VIA SPACETRACK.ORG API,18 SPCS,50803,STARLINK-3321,PAYLOAD,U,22001A,2025-01-04 14:00:01,224,15.68621059,7.51e-05,53.2103,285.9581,96.5344,237.3256,0,999,584,0.005064,0.00633191,0.0,4600129,0 STARLINK-3321,1 50803U 22001A   25004.58334491  .00633191  00000-0  50640-2 0  9999,2 50803  53.2103 285.9581 0000751  96.5344 237.3256 15.68621059  5842,2022-001A,50803,6740.982,91.8,363.353,362.34,1
GENERATED VIA SPACETRACK.ORG API,18 SPCS,50803,STARLINK-3321,PAYLOAD,U,22001A,2025-01-04 20:00:01,224,15.6892891,8.77e-05,53.2105,284.7289,99.0513,207.5108,0,999,16706,0.0046553,0.00585981,0.0,4600218,0 STARLINK-3321,1 50803U 22001A   25004.83334491  .00585981  00000-0  46553-2 0  9998,2 50803  53.2105 284.7289 0000877  99.0513 207.5108 15.68928910167065,2022-001A,50803,6740.1,91.782,362.556,361.374,1
GENERATED VIA SPACETRACK.ORG API,18 SPCS,50803,STARLINK-3321,PAYLOAD,U,22001A,2025-01-04 22:00:00,999936,15.69033914,9.04e-05,53.2105,284.3197,94.8699,322.6509,0,999,589,0.0043825,0.00551645,0.0,4600452,0 STARLINK-3321,1 50803U 22001A   25004.91667824  .00551645  00000-0  43825-2 0  9995,2 50803  53.2105 284.3197 0000904  94.8699 322.6509 15.69033914  5896,2022-001A,50803,6739.799,91.776,362.273,361.055,1
GENERATED VIA SPACETRACK.ORG API,18 SPCS,50803,STARLINK-3321,PAYLOAD,U,22001A,2025-01-05 14:00:01,224,15.69746784,7.84e-05,53.21,281.0379,103.3916,122.8384,0,999,585,0.0048228,0.00631396,0.0,4601203,0 STARLINK-3321,1 50803U 22001A   25005.58334491  .00631396  00000-0  48228-2 0  9994,2 50803  53.2100 281.0379 0000784 103.3916 122.8384 15.69746784  5854,2022-001A,50803,6737.758,91.735,360.152,359.095,1
